{"type":"FeatureCollection","total":4,"metadata":{"region":"경기도 성남시 분당구","sourceName":"성남시 분당 노후계획도시 특별정비구역 지형도면 고시","sourceUrl":"https://www.seongnam.go.kr/pm010301/145352","sourceLicense":"공공누리 제1유형(출처표시)","sourceBaseDate":"2026-08-24","boundary":"노후계획도시 정비 및 지원에 관한 특별법에 따른 특별정비구역","geometryNote":"공식 고시 지형도면과 대조하여 공개 지도 경계 좌표를 결합한 표시용 재구성 자료","generatedBy":"scripts/generate-bundang-special-zones.mjs"},"features":[{"type":"Feature","id":"bundang-yangji","geometry":{"type":"MultiPolygon","coordinates":[[[[127.11895871107913,37.3736298700999],[127.11854852859055,37.37396889419794],[127.11902051480284,37.374310188276134],[127.11942542026928,37.37460837703264],[127.11985779130032,37.374241949821155],[127.11994240717344,37.37423538836047],[127.12053064408413,37.37466401480788],[127.12095378708021,37.37497748762536],[127.12142414900373,37.37532203762622],[127.12142996576509,37.37540664355338],[127.12138251123845,37.37546915065069],[127.12101141914626,37.37584484330594],[127.12076500733247,37.37619294920648],[127.12052646517226,37.376522253552245],[127.12038443086456,37.376785063662616],[127.12022489779021,37.377031674205476],[127.12009730017061,37.37738365824298],[127.11996914547716,37.377739255805494],[127.1198092548425,37.37813641944233],[127.11966209557474,37.37849560907264],[127.11943760202917,37.37881393822536],[127.11918771440554,37.37916399653964],[127.11894065513941,37.37941632909461],[127.1186530755565,37.37968109494683],[127.11854030367768,37.379682191745516],[127.11813180032225,37.37938895042687],[127.11711249995763,37.378699946544195],[127.11584393111112,37.37780667662205],[127.11636027207965,37.37737635204886],[127.11710794479656,37.37670654726989],[127.1180280637237,37.37734928899935],[127.1187875890685,37.376660035064425],[127.11787032188654,37.376006110587824],[127.1183444072764,37.37558385412014],[127.11929659693476,37.37475155831319],[127.11914310834611,37.37465190513896],[127.11845771105506,37.37527136944533],[127.11779587100392,37.37588215707312],[127.11705207189853,37.376515113561375],[127.11634182858565,37.37715292560661],[127.11624713449703,37.3771859867682],[127.11571145433642,37.376770545232546],[127.11569765018547,37.37670276286434],[127.11620306626604,37.37624892387381],[127.11688456537233,37.37564718244661],[127.11768622058128,37.37494076746356],[127.11852674857602,37.37418833619462],[127.11838865834976,37.37412346663276],[127.11728875505356,37.37508943719954],[127.11619552927735,37.374345175203054],[127.11521687740732,37.37521101065306],[127.11625402232572,37.375991184426795],[127.11566974002815,37.376499445566616],[127.1149729617429,37.37714648596475],[127.11459029380072,37.37687284187084],[127.11390902644709,37.37641523721101],[127.11322087622963,37.37590610810739],[127.11267921018481,37.37548917482987],[127.11266345327351,37.37540893541382],[127.11298786705409,37.37509261874058],[127.11384958782912,37.374303659039505],[127.11504673476317,37.373247925149684],[127.1159723168605,37.372447104280496],[127.11654431063637,37.37194601929138],[127.11665986345025,37.371914970119356],[127.11712430347605,37.372261775811076],[127.11802620221809,37.37287828274327],[127.11895965187117,37.37352452955073],[127.11895691139765,37.373601143312264],[127.11895871107913,37.3736298700999]]]]},"properties":{"projectName":"분당 양지마을 통합재건축","normalizedName":"분당양지마을통합재건축","projectType":"노후계획도시 특별정비구역","category":"new-town-special","programTags":["노후계획도시","분당 선도지구"],"stageName":"사업시행자 지정","districtCode":"41135","districtName":"성남시 분당구","regionName":"경기도 성남시 분당구","areaSquareMeters":292343.6,"reportedAreaSquareMeters":null,"noticeDate":"2026-01-27","sourceBaseDate":"2026-08-24","partCount":1,"boundaryKind":"special-legal","showLabel":true,"bounds":[127.11266345327351,37.371914970119356,127.12142996576509,37.379682191745516],"sourceName":"성남시 분당 노후계획도시 특별정비구역 지형도면 고시","sourceUrl":"https://www.eum.go.kr/web/gs/gv/gvGosiDet.jsp?seq=628794","sourceLicense":"공공누리 제1유형(출처표시)"}},{"type":"Feature","id":"bundang-saetbyeol-31-s4","geometry":{"type":"MultiPolygon","coordinates":[[[[127.1298755814327,37.370119794628444],[127.13003458156463,37.369896599511755],[127.13026202211533,37.369553991533124],[127.13169765323768,37.369104079064584],[127.13206300818378,37.36967462425441],[127.13146203336616,37.37019758634121],[127.13101200895872,37.37000574827831],[127.13080897944062,37.37026975334623],[127.13008284658456,37.3699071803936],[127.12992220285354,37.37015755697251],[127.13035885124913,37.3703857765528],[127.13094988445991,37.37065014881814],[127.1316046198355,37.370948138459745],[127.13192091994667,37.371093147118046],[127.13217667283564,37.37123708651606],[127.13245356977559,37.371410470075844],[127.13266802810196,37.371540735181284],[127.13315585550484,37.371867112872685],[127.13359119826671,37.37217257667127],[127.13358465437926,37.372271761893536],[127.13306090107122,37.37276316347975],[127.13235774315243,37.37338525856121],[127.13179157020244,37.37391642066603],[127.1308972318633,37.37470268820635],[127.13046766094375,37.375101613279725],[127.1303356286367,37.3750960958428],[127.12973409238124,37.37465068564156],[127.12918721216406,37.3743129192366],[127.12891739390953,37.37412045182283],[127.12804142605091,37.37346594311798],[127.12762891601737,37.37319534655016],[127.12758296042445,37.37314816397024],[127.12728207837094,37.37291562731531],[127.12722292021682,37.37290336014981],[127.12685075774372,37.37261614843978],[127.12599946412115,37.372029207952146],[127.12599554638098,37.37191632252994],[127.12635993642681,37.371611365222925],[127.12677871549907,37.37119598753868],[127.1271183221407,37.37089641027914],[127.12796164682909,37.37013697207058],[127.12872928310729,37.369457429384155],[127.1288533869069,37.369429681543224],[127.12900828262126,37.36958855572018],[127.12919653338048,37.36973091364287],[127.12942813258867,37.369901642030726],[127.12966219537046,37.37004519089957],[127.12985657568593,37.37012812605755],[127.1298755814327,37.370119794628444]]]]},"properties":{"projectName":"분당 샛별마을 31·S4 결합 재건축","normalizedName":"분당샛별마을31·S4결합재건축","projectType":"노후계획도시 특별정비구역","category":"new-town-special","programTags":["노후계획도시","분당 선도지구"],"stageName":"사업시행자 지정","districtCode":"41135","districtName":"성남시 분당구","regionName":"경기도 성남시 분당구","areaSquareMeters":230612.6,"reportedAreaSquareMeters":null,"noticeDate":"2026-04-30","sourceBaseDate":"2026-08-24","partCount":1,"boundaryKind":"special-legal","showLabel":true,"bounds":[127.12599554638098,37.369104079064584,127.13359119826671,37.375101613279725],"sourceName":"성남시 분당 노후계획도시 특별정비구역 지형도면 고시","sourceUrl":"https://eum.go.kr/web/gs/gv/gvGosiDet.jsp?seq=634299","sourceLicense":"공공누리 제1유형(출처표시)"}},{"type":"Feature","id":"bundang-mokryeon-6-s3","geometry":{"type":"MultiPolygon","coordinates":[[[[127.14841589716254,37.40646268660827],[127.14850203809752,37.40648024467494],[127.14857506780228,37.40668271292878],[127.14858951859631,37.406799629944906],[127.14855798163549,37.40705647885819],[127.14855962663727,37.40721226390681],[127.14859413304879,37.40737589328366],[127.14869601707278,37.407580878538376],[127.14906592577194,37.408244345308745],[127.1496672572072,37.4080362075343],[127.1495347649997,37.40781879264124],[127.15008995194783,37.40778689252293],[127.15094966655462,37.4080092323445],[127.15129118525799,37.4087954718157],[127.15109693104672,37.408947029300855],[127.15054735885093,37.40914455963127],[127.1499937669428,37.40936859718762],[127.1497668777554,37.40915188143006],[127.14954132485927,37.408921237647476],[127.14933728037529,37.40863292257308],[127.14893048234572,37.40880789019836],[127.14835053342264,37.40900901616351],[127.14795879069429,37.4091540522622],[127.14770611488639,37.409239487923365],[127.14757320588234,37.40929967930184],[127.14728425199817,37.4099213143241],[127.1465499539644,37.409640599602376],[127.14596506783748,37.40941861140043],[127.14553473236536,37.40869735154712],[127.14524297166237,37.40881331578348],[127.14517504466768,37.40878601279278],[127.14469600962046,37.40797006683328],[127.14591505240183,37.40748564163327],[127.14680228302882,37.4071641680493],[127.14690024603172,37.4070994746173],[127.14677202841538,37.406852459216],[127.1475789617683,37.40664606294051],[127.14769747905748,37.40664440550055],[127.14801346720739,37.40657146611335],[127.14811203053097,37.406503913177296],[127.14841594169039,37.406453009105526],[127.14841589716254,37.40646268660827]]],[[[127.14465328799142,37.40550474951984],[127.14460751906817,37.40542249083492],[127.14465935591153,37.40525012389322],[127.14454885606061,37.404755459845816],[127.14483321814497,37.40454664635044],[127.14509231905689,37.40459863025215],[127.14517789711302,37.404879422965],[127.14533367881099,37.40531862616799],[127.14530852842368,37.40535750153253],[127.1451121841987,37.40538530966974],[127.14486207685886,37.405458242701286],[127.14465290309981,37.405522546171234],[127.14465328799142,37.40550474951984]]]]},"properties":{"projectName":"분당 목련마을 6·S3 결합 재건축","normalizedName":"분당목련마을6·S3결합재건축","projectType":"노후계획도시 특별정비구역","category":"new-town-special","programTags":["노후계획도시","분당 선도지구"],"stageName":"사업시행자 지정","districtCode":"41135","districtName":"성남시 분당구","regionName":"경기도 성남시 분당구","areaSquareMeters":111417.3,"reportedAreaSquareMeters":null,"noticeDate":"2026-04-30","sourceBaseDate":"2026-08-24","partCount":2,"boundaryKind":"special-legal","showLabel":true,"bounds":[127.14454885606061,37.40454664635044,127.15129118525799,37.4099213143241],"sourceName":"성남시 분당 노후계획도시 특별정비구역 지형도면 고시","sourceUrl":"https://www.eum.go.kr/web/gs/gv/gvGosiDet.jsp?seq=634540","sourceLicense":"공공누리 제1유형(출처표시)"}},{"type":"Feature","id":"bundang-sibeom-23-s6","geometry":{"type":"MultiPolygon","coordinates":[[[[127.12635547068191,37.378468998736345],[127.12634318741561,37.37837740386005],[127.12670097796044,37.378115786746704],[127.12690701627032,37.37800714912605],[127.12753098893323,37.37768365555506],[127.12821626116519,37.377348427779864],[127.12861600276437,37.37711527501112],[127.12893254912304,37.3769082617532],[127.12911902524904,37.3767562555034],[127.12949888917261,37.37639244332053],[127.13000010590771,37.375987712458695],[127.13033238422896,37.375642383855755],[127.13047163143048,37.37564479409656],[127.13072497646073,37.37579937648755],[127.13100995923872,37.37600820256387],[127.13150144606905,37.37640966989905],[127.13213666565674,37.376856848514564],[127.13260406541855,37.37721122888751],[127.13259297988506,37.377276816158165],[127.13206854418488,37.37771602512048],[127.13261952348665,37.378081119318594],[127.13299184679292,37.37835397517171],[127.13350296178912,37.37790491993015],[127.1335647964498,37.37789583365059],[127.13419780139847,37.378333878298804],[127.1347285354807,37.37870841163914],[127.13569781364602,37.37937803658475],[127.13568970006746,37.37950897980035],[127.13527167445123,37.379902516232704],[127.13497354635066,37.380160638279804],[127.13462893300331,37.380500042974084],[127.13427427939101,37.38081239303316],[127.1341665579511,37.380862038679645],[127.1339244947456,37.381092333708104],[127.13388127058856,37.38115781420755],[127.13365934895205,37.38136819031192],[127.1333047959663,37.381672957106346],[127.13282660504854,37.38210265189507],[127.13254908021214,37.38234528509345],[127.1322753687334,37.38258611538118],[127.13213866967338,37.38257838971657],[127.13195524902237,37.38243974718266],[127.1313636702327,37.38205637030565],[127.13096998131796,37.38180351408889],[127.12972782439822,37.38089626048575],[127.12970548071792,37.380824438420326],[127.13023563428001,37.38037894016574],[127.1297938006529,37.380046243269604],[127.1293600823689,37.37971330590955],[127.12883093110997,37.38016633050396],[127.1287407719432,37.380190332807906],[127.12763243905178,37.37939178358826],[127.12635665121395,37.37849253160385],[127.12635547068191,37.378468998736345]]],[[[127.14737469333213,37.372127536069605],[127.14753543432525,37.371833543829915],[127.14767665292831,37.371424350214376],[127.14881986799409,37.37140079215997],[127.14889678262621,37.3713988499421],[127.14941969529524,37.371640201628395],[127.14947637914351,37.37199511850684],[127.14945821042222,37.37203190759321],[127.14883139556761,37.372161372920516],[127.14833980798635,37.372132847291056],[127.14787312261493,37.372254744927794],[127.1474008702879,37.37215941768847],[127.14737469333213,37.372127536069605]]]]},"properties":{"projectName":"분당 시범단지 23·S6 결합 재건축","normalizedName":"분당시범단지23·S6결합재건축","projectType":"노후계획도시 특별정비구역","category":"new-town-special","programTags":["노후계획도시","분당 선도지구"],"stageName":"사업시행자 지정","districtCode":"41135","districtName":"성남시 분당구","regionName":"경기도 성남시 분당구","areaSquareMeters":312303.5,"reportedAreaSquareMeters":null,"noticeDate":"2026-04-30","sourceBaseDate":"2026-08-24","partCount":2,"boundaryKind":"special-legal","showLabel":true,"bounds":[127.12634318741561,37.3713988499421,127.14947637914351,37.38258611538118],"sourceName":"성남시 분당 노후계획도시 특별정비구역 지형도면 고시","sourceUrl":"https://www.eum.go.kr/web/gs/gv/gvGosiDet.jsp?seq=634037","sourceLicense":"공공누리 제1유형(출처표시)"}}]}
