{"type":"FeatureCollection","total":9,"metadata":{"region":"경기도 1기 신도시","sourceName":"성남·안양·군포·부천시 노후계획도시 특별정비구역 고시","sourceUrl":"https://www.eum.go.kr/","sourceLicense":"공식 고시 원문(기관 이용조건 확인)","sourceBaseDate":"2026-08-25","boundary":"노후계획도시 정비 및 지원에 관한 특별법에 따른 특별정비구역","geometryNote":"공식 고시와 지형도면을 기준으로 공개 좌표 또는 대표 공동주택 주필지를 결합한 표시용 재구성 자료","generatedBy":"scripts/generate-gyeonggi-new-town-special-zones.mjs"},"features":[{"type":"Feature","id":"bundang-yangji","geometry":{"type":"MultiPolygon","coordinates":[[[[127.11895871107913,37.3736298700999],[127.11854852859055,37.37396889419794],[127.11902051480284,37.374310188276134],[127.11942542026928,37.37460837703264],[127.11985779130032,37.374241949821155],[127.11994240717344,37.37423538836047],[127.12053064408413,37.37466401480788],[127.12095378708021,37.37497748762536],[127.12142414900373,37.37532203762622],[127.12142996576509,37.37540664355338],[127.12138251123845,37.37546915065069],[127.12101141914626,37.37584484330594],[127.12076500733247,37.37619294920648],[127.12052646517226,37.376522253552245],[127.12038443086456,37.376785063662616],[127.12022489779021,37.377031674205476],[127.12009730017061,37.37738365824298],[127.11996914547716,37.377739255805494],[127.1198092548425,37.37813641944233],[127.11966209557474,37.37849560907264],[127.11943760202917,37.37881393822536],[127.11918771440554,37.37916399653964],[127.11894065513941,37.37941632909461],[127.1186530755565,37.37968109494683],[127.11854030367768,37.379682191745516],[127.11813180032225,37.37938895042687],[127.11711249995763,37.378699946544195],[127.11584393111112,37.37780667662205],[127.11636027207965,37.37737635204886],[127.11710794479656,37.37670654726989],[127.1180280637237,37.37734928899935],[127.1187875890685,37.376660035064425],[127.11787032188654,37.376006110587824],[127.1183444072764,37.37558385412014],[127.11929659693476,37.37475155831319],[127.11914310834611,37.37465190513896],[127.11845771105506,37.37527136944533],[127.11779587100392,37.37588215707312],[127.11705207189853,37.376515113561375],[127.11634182858565,37.37715292560661],[127.11624713449703,37.3771859867682],[127.11571145433642,37.376770545232546],[127.11569765018547,37.37670276286434],[127.11620306626604,37.37624892387381],[127.11688456537233,37.37564718244661],[127.11768622058128,37.37494076746356],[127.11852674857602,37.37418833619462],[127.11838865834976,37.37412346663276],[127.11728875505356,37.37508943719954],[127.11619552927735,37.374345175203054],[127.11521687740732,37.37521101065306],[127.11625402232572,37.375991184426795],[127.11566974002815,37.376499445566616],[127.1149729617429,37.37714648596475],[127.11459029380072,37.37687284187084],[127.11390902644709,37.37641523721101],[127.11322087622963,37.37590610810739],[127.11267921018481,37.37548917482987],[127.11266345327351,37.37540893541382],[127.11298786705409,37.37509261874058],[127.11384958782912,37.374303659039505],[127.11504673476317,37.373247925149684],[127.1159723168605,37.372447104280496],[127.11654431063637,37.37194601929138],[127.11665986345025,37.371914970119356],[127.11712430347605,37.372261775811076],[127.11802620221809,37.37287828274327],[127.11895965187117,37.37352452955073],[127.11895691139765,37.373601143312264],[127.11895871107913,37.3736298700999]]]]},"properties":{"projectName":"분당 양지마을 통합재건축","normalizedName":"분당양지마을통합재건축","projectType":"노후계획도시 특별정비구역","category":"new-town-special","programTags":["노후계획도시","분당 선도지구"],"stageName":"사업시행자 지정","districtCode":"41135","districtName":"성남시 분당구","regionName":"경기도 성남시 분당구","areaSquareMeters":292343.6,"reportedAreaSquareMeters":null,"noticeDate":"2026-01-27","sourceBaseDate":"2026-08-24","partCount":1,"boundaryKind":"special-legal","showLabel":true,"bounds":[127.11266345327351,37.371914970119356,127.12142996576509,37.379682191745516],"sourceName":"성남시 분당 노후계획도시 특별정비구역 지형도면 고시","sourceUrl":"https://www.eum.go.kr/web/gs/gv/gvGosiDet.jsp?seq=628794","sourceLicense":"공공누리 제1유형(출처표시)"}},{"type":"Feature","id":"bundang-saetbyeol-31-s4","geometry":{"type":"MultiPolygon","coordinates":[[[[127.1298755814327,37.370119794628444],[127.13003458156463,37.369896599511755],[127.13026202211533,37.369553991533124],[127.13169765323768,37.369104079064584],[127.13206300818378,37.36967462425441],[127.13146203336616,37.37019758634121],[127.13101200895872,37.37000574827831],[127.13080897944062,37.37026975334623],[127.13008284658456,37.3699071803936],[127.12992220285354,37.37015755697251],[127.13035885124913,37.3703857765528],[127.13094988445991,37.37065014881814],[127.1316046198355,37.370948138459745],[127.13192091994667,37.371093147118046],[127.13217667283564,37.37123708651606],[127.13245356977559,37.371410470075844],[127.13266802810196,37.371540735181284],[127.13315585550484,37.371867112872685],[127.13359119826671,37.37217257667127],[127.13358465437926,37.372271761893536],[127.13306090107122,37.37276316347975],[127.13235774315243,37.37338525856121],[127.13179157020244,37.37391642066603],[127.1308972318633,37.37470268820635],[127.13046766094375,37.375101613279725],[127.1303356286367,37.3750960958428],[127.12973409238124,37.37465068564156],[127.12918721216406,37.3743129192366],[127.12891739390953,37.37412045182283],[127.12804142605091,37.37346594311798],[127.12762891601737,37.37319534655016],[127.12758296042445,37.37314816397024],[127.12728207837094,37.37291562731531],[127.12722292021682,37.37290336014981],[127.12685075774372,37.37261614843978],[127.12599946412115,37.372029207952146],[127.12599554638098,37.37191632252994],[127.12635993642681,37.371611365222925],[127.12677871549907,37.37119598753868],[127.1271183221407,37.37089641027914],[127.12796164682909,37.37013697207058],[127.12872928310729,37.369457429384155],[127.1288533869069,37.369429681543224],[127.12900828262126,37.36958855572018],[127.12919653338048,37.36973091364287],[127.12942813258867,37.369901642030726],[127.12966219537046,37.37004519089957],[127.12985657568593,37.37012812605755],[127.1298755814327,37.370119794628444]]]]},"properties":{"projectName":"분당 샛별마을 31·S4 결합 재건축","normalizedName":"분당샛별마을31·S4결합재건축","projectType":"노후계획도시 특별정비구역","category":"new-town-special","programTags":["노후계획도시","분당 선도지구"],"stageName":"사업시행자 지정","districtCode":"41135","districtName":"성남시 분당구","regionName":"경기도 성남시 분당구","areaSquareMeters":230612.6,"reportedAreaSquareMeters":null,"noticeDate":"2026-04-30","sourceBaseDate":"2026-08-24","partCount":1,"boundaryKind":"special-legal","showLabel":true,"bounds":[127.12599554638098,37.369104079064584,127.13359119826671,37.375101613279725],"sourceName":"성남시 분당 노후계획도시 특별정비구역 지형도면 고시","sourceUrl":"https://eum.go.kr/web/gs/gv/gvGosiDet.jsp?seq=634299","sourceLicense":"공공누리 제1유형(출처표시)"}},{"type":"Feature","id":"bundang-mokryeon-6-s3","geometry":{"type":"MultiPolygon","coordinates":[[[[127.14841589716254,37.40646268660827],[127.14850203809752,37.40648024467494],[127.14857506780228,37.40668271292878],[127.14858951859631,37.406799629944906],[127.14855798163549,37.40705647885819],[127.14855962663727,37.40721226390681],[127.14859413304879,37.40737589328366],[127.14869601707278,37.407580878538376],[127.14906592577194,37.408244345308745],[127.1496672572072,37.4080362075343],[127.1495347649997,37.40781879264124],[127.15008995194783,37.40778689252293],[127.15094966655462,37.4080092323445],[127.15129118525799,37.4087954718157],[127.15109693104672,37.408947029300855],[127.15054735885093,37.40914455963127],[127.1499937669428,37.40936859718762],[127.1497668777554,37.40915188143006],[127.14954132485927,37.408921237647476],[127.14933728037529,37.40863292257308],[127.14893048234572,37.40880789019836],[127.14835053342264,37.40900901616351],[127.14795879069429,37.4091540522622],[127.14770611488639,37.409239487923365],[127.14757320588234,37.40929967930184],[127.14728425199817,37.4099213143241],[127.1465499539644,37.409640599602376],[127.14596506783748,37.40941861140043],[127.14553473236536,37.40869735154712],[127.14524297166237,37.40881331578348],[127.14517504466768,37.40878601279278],[127.14469600962046,37.40797006683328],[127.14591505240183,37.40748564163327],[127.14680228302882,37.4071641680493],[127.14690024603172,37.4070994746173],[127.14677202841538,37.406852459216],[127.1475789617683,37.40664606294051],[127.14769747905748,37.40664440550055],[127.14801346720739,37.40657146611335],[127.14811203053097,37.406503913177296],[127.14841594169039,37.406453009105526],[127.14841589716254,37.40646268660827]]],[[[127.14465328799142,37.40550474951984],[127.14460751906817,37.40542249083492],[127.14465935591153,37.40525012389322],[127.14454885606061,37.404755459845816],[127.14483321814497,37.40454664635044],[127.14509231905689,37.40459863025215],[127.14517789711302,37.404879422965],[127.14533367881099,37.40531862616799],[127.14530852842368,37.40535750153253],[127.1451121841987,37.40538530966974],[127.14486207685886,37.405458242701286],[127.14465290309981,37.405522546171234],[127.14465328799142,37.40550474951984]]]]},"properties":{"projectName":"분당 목련마을 6·S3 결합 재건축","normalizedName":"분당목련마을6·S3결합재건축","projectType":"노후계획도시 특별정비구역","category":"new-town-special","programTags":["노후계획도시","분당 선도지구"],"stageName":"사업시행자 지정","districtCode":"41135","districtName":"성남시 분당구","regionName":"경기도 성남시 분당구","areaSquareMeters":111417.3,"reportedAreaSquareMeters":null,"noticeDate":"2026-04-30","sourceBaseDate":"2026-08-24","partCount":2,"boundaryKind":"special-legal","showLabel":true,"bounds":[127.14454885606061,37.40454664635044,127.15129118525799,37.4099213143241],"sourceName":"성남시 분당 노후계획도시 특별정비구역 지형도면 고시","sourceUrl":"https://www.eum.go.kr/web/gs/gv/gvGosiDet.jsp?seq=634540","sourceLicense":"공공누리 제1유형(출처표시)"}},{"type":"Feature","id":"bundang-sibeom-23-s6","geometry":{"type":"MultiPolygon","coordinates":[[[[127.12635547068191,37.378468998736345],[127.12634318741561,37.37837740386005],[127.12670097796044,37.378115786746704],[127.12690701627032,37.37800714912605],[127.12753098893323,37.37768365555506],[127.12821626116519,37.377348427779864],[127.12861600276437,37.37711527501112],[127.12893254912304,37.3769082617532],[127.12911902524904,37.3767562555034],[127.12949888917261,37.37639244332053],[127.13000010590771,37.375987712458695],[127.13033238422896,37.375642383855755],[127.13047163143048,37.37564479409656],[127.13072497646073,37.37579937648755],[127.13100995923872,37.37600820256387],[127.13150144606905,37.37640966989905],[127.13213666565674,37.376856848514564],[127.13260406541855,37.37721122888751],[127.13259297988506,37.377276816158165],[127.13206854418488,37.37771602512048],[127.13261952348665,37.378081119318594],[127.13299184679292,37.37835397517171],[127.13350296178912,37.37790491993015],[127.1335647964498,37.37789583365059],[127.13419780139847,37.378333878298804],[127.1347285354807,37.37870841163914],[127.13569781364602,37.37937803658475],[127.13568970006746,37.37950897980035],[127.13527167445123,37.379902516232704],[127.13497354635066,37.380160638279804],[127.13462893300331,37.380500042974084],[127.13427427939101,37.38081239303316],[127.1341665579511,37.380862038679645],[127.1339244947456,37.381092333708104],[127.13388127058856,37.38115781420755],[127.13365934895205,37.38136819031192],[127.1333047959663,37.381672957106346],[127.13282660504854,37.38210265189507],[127.13254908021214,37.38234528509345],[127.1322753687334,37.38258611538118],[127.13213866967338,37.38257838971657],[127.13195524902237,37.38243974718266],[127.1313636702327,37.38205637030565],[127.13096998131796,37.38180351408889],[127.12972782439822,37.38089626048575],[127.12970548071792,37.380824438420326],[127.13023563428001,37.38037894016574],[127.1297938006529,37.380046243269604],[127.1293600823689,37.37971330590955],[127.12883093110997,37.38016633050396],[127.1287407719432,37.380190332807906],[127.12763243905178,37.37939178358826],[127.12635665121395,37.37849253160385],[127.12635547068191,37.378468998736345]]],[[[127.14737469333213,37.372127536069605],[127.14753543432525,37.371833543829915],[127.14767665292831,37.371424350214376],[127.14881986799409,37.37140079215997],[127.14889678262621,37.3713988499421],[127.14941969529524,37.371640201628395],[127.14947637914351,37.37199511850684],[127.14945821042222,37.37203190759321],[127.14883139556761,37.372161372920516],[127.14833980798635,37.372132847291056],[127.14787312261493,37.372254744927794],[127.1474008702879,37.37215941768847],[127.14737469333213,37.372127536069605]]]]},"properties":{"projectName":"분당 시범단지 23·S6 결합 재건축","normalizedName":"분당시범단지23·S6결합재건축","projectType":"노후계획도시 특별정비구역","category":"new-town-special","programTags":["노후계획도시","분당 선도지구"],"stageName":"사업시행자 지정","districtCode":"41135","districtName":"성남시 분당구","regionName":"경기도 성남시 분당구","areaSquareMeters":312303.5,"reportedAreaSquareMeters":null,"noticeDate":"2026-04-30","sourceBaseDate":"2026-08-24","partCount":2,"boundaryKind":"special-legal","showLabel":true,"bounds":[127.12634318741561,37.3713988499421,127.14947637914351,37.38258611538118],"sourceName":"성남시 분당 노후계획도시 특별정비구역 지형도면 고시","sourceUrl":"https://www.eum.go.kr/web/gs/gv/gvGosiDet.jsp?seq=634037","sourceLicense":"공공누리 제1유형(출처표시)"}},{"type":"Feature","id":"pyeongchon-a17","geometry":{"type":"MultiPolygon","coordinates":[[[[126.96404110286275,37.38634628441884],[126.96422657527243,37.386014566451856],[126.96424544314915,37.3859110232712],[126.96449723086555,37.38546022954271],[126.96496994548055,37.384599214708494],[126.9650836686645,37.38443189506073],[126.96529052270844,37.384023624251384],[126.96533678754423,37.38389867782461],[126.96538196243303,37.383795680773076],[126.96563584941629,37.38329149388502],[126.96582314492284,37.3829546058673],[126.96594014239521,37.38294145496866],[126.96636280790104,37.38307756964039],[126.96645416825156,37.38314923598084],[126.96740132403046,37.38352615045515],[126.96743632355368,37.38360918659683],[126.96804354038976,37.38385104991372],[126.9680555076423,37.38380804467328],[126.96887039154551,37.384131162855496],[126.96893420021128,37.38421148920334],[126.9689644287082,37.38461894580333],[126.96893399868434,37.384713300528304],[126.96899610680842,37.385170554792566],[126.96902221574209,37.385258301573415],[126.9690147490653,37.385625663269366],[126.9689679109286,37.385909403991015],[126.96893914458043,37.386161531862264],[126.9688709668978,37.38641019223071],[126.96879826292403,37.38661544364064],[126.96872598305436,37.38681764857818],[126.96848218085569,37.38728653225406],[126.96831241825548,37.38765022316551],[126.96821511059595,37.387712447771705],[126.96671357454132,37.38725906596943],[126.96641138494742,37.38714876284166],[126.96608483960824,37.38704413355502],[126.96592958997083,37.38698839880894],[126.96531494476004,37.386800692798204],[126.96518110571499,37.38678021401059],[126.96406256931171,37.38644397389741],[126.96402555318093,37.38636693428539],[126.96404110286275,37.38634628441884]]]]},"properties":{"projectName":"평촌 귀인블럭(A-17) 통합재건축","normalizedName":"평촌귀인블럭(A-17)통합재건축","projectType":"노후계획도시 특별정비구역","category":"new-town-special","programTags":["노후계획도시","평촌 선도지구"],"stageName":"사업시행자 지정","districtCode":"41173","districtName":"안양시 동안구","regionName":"경기도 안양시 동안구","areaSquareMeters":151429.7,"reportedAreaSquareMeters":151161,"noticeDate":"2025-12-30","sourceBaseDate":"2026-08-25","partCount":1,"boundaryKind":"special-legal","geometryNote":"공식 고시 지형도면과 대조하여 공개 지도 경계 좌표를 결합한 표시용 재구성 경계","showLabel":true,"bounds":[126.964026,37.382941,126.969022,37.387712],"sourceName":"안양시 고시 제2025-279호","sourceUrl":"https://anyang.go.kr/main/emwsWebView.do?key=4101&pageIndex=1&pageUnit=1470&regiNo=28295&searchCnd=all&searchGosiSe=01%2C03%2C04&searchKrwd=","sourceLicense":"공식 고시 원문(기관 이용조건 확인)"}},{"type":"Feature","id":"pyeongchon-a18","geometry":{"type":"MultiPolygon","coordinates":[[[[126.96857812210654,37.387738643885335],[126.96869749262777,37.38751041539785],[126.96899134441338,37.38683143096818],[126.96905722179947,37.38676388693489],[126.96920256956047,37.386292141098245],[126.96920863908694,37.3862042816119],[126.9692802323054,37.38588476715806],[126.96929242223197,37.385661008141035],[126.96928504393027,37.385411261909866],[126.96929071958296,37.38522034027246],[126.96928226235916,37.38495342462965],[126.96919876697118,37.38425066901357],[126.96930731420022,37.3841591689624],[126.9702173288065,37.38415568771652],[126.97093924617306,37.38412971419067],[126.97204960769434,37.38412949725296],[126.9721306242988,37.3841804081093],[126.97218533212128,37.38457578220551],[126.97221819490942,37.38507913940801],[126.97229220255889,37.38584111960612],[126.97237942158112,37.38675118587416],[126.97244935536133,37.387489708552806],[126.97251435888282,37.38790566566925],[126.9725143025838,37.38801497157348],[126.9725001203605,37.38807105089523],[126.97250287712713,37.3881373237608],[126.97245125173175,37.388177967610865],[126.97239764418934,37.388233038226424],[126.97233223439005,37.38827821973454],[126.97223699294307,37.38830032273149],[126.97214238582892,37.38831937117487],[126.97170718910826,37.38830546552099],[126.97069744499619,37.388228073371636],[126.9697303768795,37.388165711254],[126.96864340380009,37.38782288999968],[126.96860299943852,37.38775458994122],[126.96857812210654,37.387738643885335]]]]},"properties":{"projectName":"평촌 민백마을(A-18) 통합재건축","normalizedName":"평촌민백마을(A-18)통합재건축","projectType":"노후계획도시 특별정비구역","category":"new-town-special","programTags":["노후계획도시","평촌 선도지구"],"stageName":"사업시행자 지정","districtCode":"41173","districtName":"안양시 동안구","regionName":"경기도 안양시 동안구","areaSquareMeters":129363.3,"reportedAreaSquareMeters":129134,"noticeDate":"2025-12-30","sourceBaseDate":"2026-08-25","partCount":1,"boundaryKind":"special-legal","geometryNote":"공식 고시 지형도면과 대조하여 공개 지도 경계 좌표를 결합한 표시용 재구성 경계","showLabel":true,"bounds":[126.968578,37.384129,126.972514,37.388319],"sourceName":"안양시 고시 제2025-279호","sourceUrl":"https://anyang.go.kr/main/emwsWebView.do?key=4101&pageIndex=1&pageUnit=1470&regiNo=28295&searchCnd=all&searchGosiSe=01%2C03%2C04&searchKrwd=","sourceLicense":"공식 고시 원문(기관 이용조건 확인)"}},{"type":"Feature","id":"sanbon-9-2","geometry":{"type":"MultiPolygon","coordinates":[[[[126.92085262232753,37.36383049734408],[126.92093991060001,37.363733423925616],[126.92137358935653,37.363410883816044],[126.92215990061763,37.36281960790535],[126.92307523146006,37.36216652237478],[126.92335002856697,37.361968432920975],[126.9234955462965,37.36197867919655],[126.9240786222178,37.36248667340939],[126.92462722405259,37.36296494381139],[126.92515748240258,37.36341504331728],[126.92572246534606,37.363895473689055],[126.92579811464532,37.36403635792193],[126.9256043439418,37.36424823287989],[126.92542366945872,37.36443639847933],[126.92518731870379,37.3646215526056],[126.92473817136278,37.3648963034637],[126.92435118446372,37.365150365320346],[126.9235736316671,37.36564481534443],[126.92308070833839,37.3659284047154],[126.92292224014959,37.36599446055787],[126.92271970181515,37.36605808076129],[126.92250330344122,37.36605696326441],[126.92231743110126,37.3660345121712],[126.92212124019557,37.36601351797396],[126.92193111555974,37.36595602710258],[126.9218369087166,37.36587741141283],[126.92173660042826,37.36580721423083],[126.92169171231116,37.365778262786904],[126.92163567194336,37.36571180649274],[126.92155919553342,37.365662262964534],[126.92149082938651,37.365540478215785],[126.92142201064219,37.365391136172775],[126.92135767025229,37.36517091391347],[126.92120838098663,37.36465543260264],[126.92117177840451,37.36444500877351],[126.92112473980926,37.36433513489272],[126.92104564459689,37.364170663218296],[126.92095105089058,37.364066112366686],[126.92082440559501,37.363929723093435],[126.92083298588945,37.36383596929265],[126.92085262232753,37.36383049734408]]]]},"properties":{"projectName":"산본 9-2구역 통합재건축","normalizedName":"산본9-2구역통합재건축","projectType":"노후계획도시 특별정비구역","category":"new-town-special","programTags":["노후계획도시","산본 선도지구"],"stageName":"특별정비구역 지정","districtCode":"41410","districtName":"군포시","regionName":"경기도 군포시","areaSquareMeters":116979.7,"reportedAreaSquareMeters":116772,"noticeDate":"2025-12-23","sourceBaseDate":"2026-08-25","partCount":1,"boundaryKind":"special-legal","geometryNote":"공식 고시 지형도면과 대조하여 공개 지도 경계 좌표를 결합한 표시용 재구성 경계","showLabel":true,"bounds":[126.920824,37.361968,126.925798,37.366058],"sourceName":"군포시 고시 제2025-167호","sourceUrl":"https://www.gunpo.go.kr/www/selectEminwonView.do?key=3907&notAncmtSeCd=01&not_ancmt_mgt_no=43543","sourceLicense":"공식 고시 원문(기관 이용조건 확인)"}},{"type":"Feature","id":"sanbon-11","geometry":{"type":"MultiPolygon","coordinates":[[[[126.93425393433475,37.37049099329017],[126.93455936189288,37.37025767663472],[126.93457577812337,37.37020516555638],[126.93457634419988,37.370203354829506],[126.93455666742295,37.370113782451334],[126.93452673134522,37.370008526536246],[126.9344456442349,37.36978827165033],[126.93437081486807,37.36964064235308],[126.93425573667284,37.36943307238725],[126.93410107454858,37.36918015851088],[126.93405676777145,37.369113367767795],[126.93391177999051,37.36890019407291],[126.93362372895591,37.36847060356478],[126.93334434343157,37.36807453522036],[126.93267855770667,37.367818746853],[126.9319818068559,37.36857051886443],[126.93425393433475,37.37049099329017]]],[[[126.932826554345,37.3667931669637],[126.93268614234303,37.3666463093456],[126.93256083404867,37.36652549981376],[126.93143520636237,37.36569815326552],[126.93089999110744,37.36632061941572],[126.92987939891329,37.3657588870954],[126.92936783541987,37.36636564684841],[126.93165537160263,37.36827749542707],[126.9321335112282,37.36791930649548],[126.93218864121441,37.367876270116334],[126.93225326606826,37.367819994293555],[126.93233145986054,37.3677394889635],[126.93241654958912,37.36764826548401],[126.93247079830581,37.36758099104773],[126.93252291563672,37.36749884853053],[126.93285397367423,37.366930858588965],[126.932826554345,37.3667931669637]],[[126.93121167451932,37.36680429189273],[126.93159474420571,37.36712717384167],[126.93134542322149,37.36731515896957],[126.93096224050863,37.36699254646185],[126.93121167451932,37.36680429189273]]],[[[126.93300819725724,37.36666307504558],[126.93356592596732,37.36571939898273],[126.93332130879689,37.365585096459085],[126.93345216761472,37.36543443130537],[126.9336551499935,37.36554582379675],[126.93366010418303,37.36556006274247],[126.93375383993344,37.36539018424397],[126.93341512322142,37.36520410946138],[126.93363081226008,37.364956128757306],[126.93359847658431,37.364936855413994],[126.93354600165422,37.364905586934974],[126.93332957792009,37.36478014861676],[126.93317254649645,37.364689127126475],[126.93314461199863,37.364671595168296],[126.93310891536296,37.36464926529213],[126.93305453932253,37.36461112071658],[126.93300016333713,37.36457297611589],[126.93278669183725,37.364455449458205],[126.93261924032468,37.36436678184544],[126.93253620866848,37.36432276371124],[126.9316788180492,37.36386877756996],[126.93157374583863,37.36388062697141],[126.93144545089912,37.36389509350327],[126.9314181526511,37.363898176837736],[126.931395900939,37.36390059640289],[126.93093991371092,37.3644463430143],[126.93071116608522,37.364720116208765],[126.93071898930803,37.36479193213211],[126.93076536253457,37.36482813580205],[126.93081172460167,37.364864249344954],[126.93088152861324,37.364941238094765],[126.93127184230065,37.365352875908776],[126.93139498446737,37.365492246540576],[126.9316666304822,37.365691532495454],[126.93184903950218,37.365831027729165],[126.93186065253484,37.3658465320976],[126.93190633697458,37.3658842215903],[126.93197515416888,37.36593183587694],[126.93220833695317,37.36610037320456],[126.93238904886665,37.366246173736215],[126.93251337763952,37.36632634692257],[126.93267255460852,37.36644420286083],[126.93273628700206,37.36649821097678],[126.93283789616679,37.366611167700995],[126.93287432128062,37.36665263571939],[126.93300819725724,37.36666307504558]]]]},"properties":{"projectName":"산본 11구역 통합재건축","normalizedName":"산본11구역통합재건축","projectType":"노후계획도시 특별정비구역","category":"new-town-special","programTags":["노후계획도시","산본 선도지구"],"stageName":"사업시행자 지정","districtCode":"41410","districtName":"군포시","regionName":"경기도 군포시","areaSquareMeters":117333,"reportedAreaSquareMeters":149904,"noticeDate":"2025-12-23","sourceBaseDate":"2026-08-25","partCount":3,"boundaryKind":"representative-parcel","geometryNote":"공식 지정 고시의 대표 지번에 속한 공동주택 주필지 경계를 결합한 표시용 경계이며 법정 지형도면과 일부 차이가 날 수 있음","showLabel":true,"bounds":[126.929368,37.363869,126.934576,37.370491],"sourceName":"군포시 고시 제2025-168호","sourceUrl":"https://www.gunpo.go.kr/www/selectEminwonView.do?key=3907&notAncmtSeCd=01&not_ancmt_mgt_no=43544","sourceLicense":"공식 고시 원문(기관 이용조건 확인)"}},{"type":"Feature","id":"jungdong-eunha","geometry":{"type":"MultiPolygon","coordinates":[[[[126.76923928129946,37.50619611074402],[126.76922022656407,37.50595812027704],[126.76917104671729,37.50576998572323],[126.76914948940892,37.50550026623969],[126.76916578323285,37.505278752397146],[126.76913094085046,37.50484368300017],[126.76906016876623,37.50479886336878],[126.76656266682993,37.50512682256734],[126.76652964106059,37.50516344543305],[126.76680905902099,37.50651385483662],[126.76685500789397,37.50654009301518],[126.76920399866,37.506231360400754],[126.76923928129946,37.50619611074402]]],[[[126.76375684822877,37.50691491117664],[126.76380279627217,37.50694115053783],[126.76666458505684,37.50656511367113],[126.76669749819935,37.50652851758317],[126.76641808228126,37.505178080896115],[126.76637213430949,37.50515186957456],[126.76353404633637,37.505524424376596],[126.76348127051197,37.50558295485478],[126.76375684822877,37.50691491117664]]],[[[126.76525635938512,37.507941000112346],[126.76503477924311,37.50687054343474],[126.76382117581672,37.50703002568718],[126.76378814795464,37.50706662073742],[126.76399010413053,37.50804270601454],[126.76408200162071,37.50809523859218],[126.76467557374401,37.50801734075494],[126.7646661040366,37.50797181248804],[126.76467277979683,37.50797091586718],[126.76463958704747,37.50780912963567],[126.76468744834685,37.507802828529385],[126.76467898198027,37.50776191537032],[126.7647456257469,37.50775312009782],[126.764796868018,37.508001347937075],[126.76525635938512,37.507941000112346]]],[[[126.76926160260999,37.506474931739334],[126.76895611295633,37.50651505574577],[126.76892391023019,37.506359471465714],[126.76687339096353,37.50662896770774],[126.76684047786229,37.50666556384421],[126.76699088626863,37.50739268672152],[126.767091360011,37.50737947933347],[126.7671264554564,37.50754929654095],[126.76742719815071,37.50750979857093],[126.76745661245496,37.50765202494581],[126.76746408007423,37.50765105765636],[126.76762019472137,37.50760305547854],[126.76795770973514,37.50755877259407],[126.76817893810701,37.50755714649873],[126.76926072608775,37.5074150199197],[126.76933117930147,37.50734452035702],[126.76926160260999,37.506474931739334]]]]},"properties":{"projectName":"중동 은하마을 통합재건축","normalizedName":"중동은하마을통합재건축","projectType":"노후계획도시 특별정비구역","category":"new-town-special","programTags":["노후계획도시","중동 선도지구"],"stageName":"사업시행자 지정","districtCode":"41192","districtName":"부천시 원미구","regionName":"경기도 부천시 원미구","areaSquareMeters":114835.8,"reportedAreaSquareMeters":null,"noticeDate":"2026-06-15","sourceBaseDate":"2026-08-25","partCount":4,"boundaryKind":"representative-parcel","geometryNote":"공식 지정 고시의 대표 지번에 속한 공동주택 주필지 경계를 결합한 표시용 경계이며 법정 지형도면과 일부 차이가 날 수 있음","showLabel":true,"bounds":[126.763481,37.504799,126.769331,37.508095],"sourceName":"부천시 고시 제2026-107호","sourceUrl":"https://www.eum.go.kr/web/gs/gv/gvGosiDet.jsp?seq=636087","sourceLicense":"공식 고시 원문(기관 이용조건 확인)"}}]}
